[{"OBJECT_NAME":"IRIDIUM 173","OBJECT_ID":"2019-002D","EPOCH":"2026-03-02T22:18:06.588288","MEAN_MOTION":14.3421507,"ECCENTRICITY":0.0002057,"INCLINATION":86.3955,"RA_OF_ASC_NODE":37.959,"ARG_OF_PERICENTER":80.0329,"MEAN_ANOMALY":280.1099,"EPHEMERIS_TYPE":0,"CLASSIFICATION_TYPE":"U","NORAD_CAT_ID":43925,"ELEMENT_SET_NO":999,"REV_AT_EPOCH":37372,"BSTAR":-0.00019664,"MEAN_MOTION_DOT":-5.31e-6,"MEAN_MOTION_DDOT":0},{"OBJECT_NAME":"IRIDIUM 169","OBJECT_ID":"2019-002E","EPOCH":"2026-03-03T02:38:36.264480","MEAN_MOTION":14.38610401,"ECCENTRICITY":0.0001602,"INCLINATION":86.4164,"RA_OF_ASC_NODE":69.5411,"ARG_OF_PERICENTER":74.3119,"MEAN_ANOMALY":285.8256,"EPHEMERIS_TYPE":0,"CLASSIFICATION_TYPE":"U","NORAD_CAT_ID":43926,"ELEMENT_SET_NO":999,"REV_AT_EPOCH":37497,"BSTAR":9.3519e-5,"MEAN_MOTION_DOT":3.06e-6,"MEAN_MOTION_DDOT":0},{"OBJECT_NAME":"IRIDIUM 172","OBJECT_ID":"2019-002F","EPOCH":"2026-03-03T03:10:22.918944","MEAN_MOTION":14.34217888,"ECCENTRICITY":0.0002358,"INCLINATION":86.3963,"RA_OF_ASC_NODE":37.8816,"ARG_OF_PERICENTER":86.9359,"MEAN_ANOMALY":273.2106,"EPHEMERIS_TYPE":0,"CLASSIFICATION_TYPE":"U","NORAD_CAT_ID":43927,"ELEMENT_SET_NO":999,"REV_AT_EPOCH":37376,"BSTAR":2.1376e-5,"MEAN_MOTION_DOT":8.0e-7,"MEAN_MOTION_DDOT":0},{"OBJECT_NAME":"IRIDIUM 175","OBJECT_ID":"2019-002G","EPOCH":"2026-03-03T02:59:40.051968","MEAN_MOTION":14.72255348,"ECCENTRICITY":0.0002212,"INCLINATION":86.1547,"RA_OF_ASC_NODE":335.7733,"ARG_OF_PERICENTER":112.8199,"MEAN_ANOMALY":247.3251,"EPHEMERIS_TYPE":0,"CLASSIFICATION_TYPE":"U","NORAD_CAT_ID":43928,"ELEMENT_SET_NO":999,"REV_AT_EPOCH":38363,"BSTAR":0.0001894,"MEAN_MOTION_DOT":1.219e-5,"MEAN_MOTION_DDOT":0},{"OBJECT_NAME":"IRIDIUM 171","OBJECT_ID":"2019-002H","EPOCH":"2026-03-03T01:02:30.864192","MEAN_MOTION":14.34218035,"ECCENTRICITY":0.0002032,"INCLINATION":86.397,"RA_OF_ASC_NODE":38.2135,"ARG_OF_PERICENTER":91.7201,"MEAN_ANOMALY":268.4228,"EPHEMERIS_TYPE":0,"CLASSIFICATION_TYPE":"U","NORAD_CAT_ID":43929,"ELEMENT_SET_NO":999,"REV_AT_EPOCH":37374,"BSTAR":2.1513e-5,"MEAN_MOTION_DOT":8.0e-7,"MEAN_MOTION_DDOT":0},{"OBJECT_NAME":"IRIDIUM 170","OBJECT_ID":"2019-002J","EPOCH":"2026-03-02T22:21:33.886080","MEAN_MOTION":14.72254903,"ECCENTRICITY":0.0002614,"INCLINATION":86.6082,"RA_OF_ASC_NODE":37.9515,"ARG_OF_PERICENTER":91.523,"MEAN_ANOMALY":268.6286,"EPHEMERIS_TYPE":0,"CLASSIFICATION_TYPE":"U","NORAD_CAT_ID":43930,"ELEMENT_SET_NO":999,"REV_AT_EPOCH":38362,"BSTAR":0.00019534,"MEAN_MOTION_DOT":1.256e-5,"MEAN_MOTION_DDOT":0},{"OBJECT_NAME":"IRIDIUM 167","OBJECT_ID":"2019-002K","EPOCH":"2026-03-02T23:12:54.847008","MEAN_MOTION":14.34217905,"ECCENTRICITY":0.0001847,"INCLINATION":86.3959,"RA_OF_ASC_NODE":37.9719,"ARG_OF_PERICENTER":89.7532,"MEAN_ANOMALY":270.3875,"EPHEMERIS_TYPE":0,"CLASSIFICATION_TYPE":"U","NORAD_CAT_ID":43931,"ELEMENT_SET_NO":999,"REV_AT_EPOCH":37373,"BSTAR":3.1479e-7,"MEAN_MOTION_DOT":2.1e-7,"MEAN_MOTION_DDOT":0},{"OBJECT_NAME":"IRIDIUM 181","OBJECT_ID":"2023-068S","EPOCH":"2026-03-03T04:06:27.055872","MEAN_MOTION":14.43313719,"ECCENTRICITY":0.00026,"INCLINATION":86.4461,"RA_OF_ASC_NODE":101.1269,"ARG_OF_PERICENTER":98.6243,"MEAN_ANOMALY":261.5252,"EPHEMERIS_TYPE":0,"CLASSIFICATION_TYPE":"U","NORAD_CAT_ID":56726,"ELEMENT_SET_NO":999,"REV_AT_EPOCH":14714,"BSTAR":0.00010695,"MEAN_MOTION_DOT":3.8e-6,"MEAN_MOTION_DDOT":0},{"OBJECT_NAME":"IRIDIUM 177","OBJECT_ID":"2023-068T","EPOCH":"2026-03-02T22:01:25.047264","MEAN_MOTION":14.80234075,"ECCENTRICITY":0.0002351,"INCLINATION":86.1992,"RA_OF_ASC_NODE":19.2366,"ARG_OF_PERICENTER":81.1514,"MEAN_ANOMALY":278.9973,"EPHEMERIS_TYPE":0,"CLASSIFICATION_TYPE":"U","NORAD_CAT_ID":56727,"ELEMENT_SET_NO":999,"REV_AT_EPOCH":15064,"BSTAR":0.00012884,"MEAN_MOTION_DOT":1.006e-5,"MEAN_MOTION_DDOT":0},{"OBJECT_NAME":"IRIDIUM 174","OBJECT_ID":"2023-068U","EPOCH":"2026-03-02T23:41:38.940000","MEAN_MOTION":14.72257468,"ECCENTRICITY":0.000261,"INCLINATION":86.6088,"RA_OF_ASC_NODE":38.065,"ARG_OF_PERICENTER":83.5872,"MEAN_ANOMALY":276.5642,"EPHEMERIS_TYPE":0,"CLASSIFICATION_TYPE":"U","NORAD_CAT_ID":56728,"ELEMENT_SET_NO":999,"REV_AT_EPOCH":15039,"BSTAR":0.00020297,"MEAN_MOTION_DOT":1.305e-5,"MEAN_MOTION_DDOT":0},{"OBJECT_NAME":"IRIDIUM 178","OBJECT_ID":"2023-068V","EPOCH":"2026-03-03T01:00:24.276960","MEAN_MOTION":14.80241868,"ECCENTRICITY":0.0002303,"INCLINATION":86.6481,"RA_OF_ASC_NODE":69.7201,"ARG_OF_PERICENTER":102.5292,"MEAN_ANOMALY":257.6187,"EPHEMERIS_TYPE":0,"CLASSIFICATION_TYPE":"U","NORAD_CAT_ID":56729,"ELEMENT_SET_NO":999,"REV_AT_EPOCH":15066,"BSTAR":8.1494e-5,"MEAN_MOTION_DOT":6.46e-6,"MEAN_MOTION_DDOT":0},{"OBJECT_NAME":"IRIDIUM 179","OBJECT_ID":"2023-068W","EPOCH":"2026-03-03T02:30:01.749024","MEAN_MOTION":14.8023838,"ECCENTRICITY":0.0002256,"INCLINATION":86.6718,"RA_OF_ASC_NODE":78.3663,"ARG_OF_PERICENTER":93.3797,"MEAN_ANOMALY":266.7682,"EPHEMERIS_TYPE":0,"CLASSIFICATION_TYPE":"U","NORAD_CAT_ID":56730,"ELEMENT_SET_NO":999,"REV_AT_EPOCH":15067,"BSTAR":7.6695e-5,"MEAN_MOTION_DOT":6.09e-6,"MEAN_MOTION_DDOT":0}]
