IRIDIUM 173             
1 43925U 19002D   26061.92924292 -.00000531  00000+0 -19664-3 0  9998
2 43925  86.3955  37.9590 0002057  80.0329 280.1099 14.34215070373728
IRIDIUM 169             
1 43926U 19002E   26062.11014195  .00000306  00000+0  93519-4 0  9993
2 43926  86.4164  69.5411 0001602  74.3119 285.8256 14.38610401374979
IRIDIUM 172             
1 43927U 19002F   26062.13220971  .00000080  00000+0  21376-4 0  9998
2 43927  86.3963  37.8816 0002358  86.9359 273.2106 14.34217888373766
IRIDIUM 175             
1 43928U 19002G   26062.12476912  .00001219  00000+0  18940-3 0  9993
2 43928  86.1547 335.7733 0002212 112.8199 247.3251 14.72255348383636
IRIDIUM 171             
1 43929U 19002H   26062.04341278  .00000080  00000+0  21513-4 0  9997
2 43929  86.3970  38.2135 0002032  91.7201 268.4228 14.34218035373748
IRIDIUM 170             
1 43930U 19002J   26061.93164220  .00001256  00000+0  19534-3 0  9991
2 43930  86.6082  37.9515 0002614  91.5230 268.6286 14.72254903383621
IRIDIUM 167             
1 43931U 19002K   26061.96730147  .00000021  00000+0  31479-6 0  9996
2 43931  86.3959  37.9719 0001847  89.7532 270.3875 14.34217905373733
IRIDIUM 181             
1 56726U 23068S   26062.17114648  .00000380  00000+0  10695-3 0  9997
2 56726  86.4461 101.1269 0002600  98.6243 261.5252 14.43313719147143
IRIDIUM 177             
1 56727U 23068T   26061.91765101  .00001006  00000+0  12884-3 0  9993
2 56727  86.1992  19.2366 0002351  81.1514 278.9973 14.80234075150647
IRIDIUM 174             
1 56728U 23068U   26061.98725625  .00001305  00000+0  20297-3 0  9997
2 56728  86.6088  38.0650 0002610  83.5872 276.5642 14.72257468150396
IRIDIUM 178             
1 56729U 23068V   26062.04194765  .00000646  00000+0  81494-4 0  9995
2 56729  86.6481  69.7201 0002303 102.5292 257.6187 14.80241868150664
IRIDIUM 179             
1 56730U 23068W   26062.10418691  .00000609  00000+0  76695-4 0  9997
2 56730  86.6718  78.3663 0002256  93.3797 266.7682 14.80238380150678
